{
  "type": "FeatureCollection",
  "features": [
    {
      "type": "Feature",
      "properties": {
        "norad_id": 31384,
        "name": "FENGYUN 1C DEB",
        "group": "fengyun-1c-debris",
        "lat": 36.71409750979228,
        "lon": -56.587049748540764,
        "alt_km": 625.4028905167743,
        "timestamp": "2025-12-09T09:46:47.928140+00:00",
        "meta_object_name": "FENGYUN 1C DEB",
        "meta_object_id": "1999-025BSQ",
        "meta_epoch": "2025-12-08T04:13:31.416384",
        "meta_mean_motion": 13.86050931,
        "meta_eccentricity": 0.04406196,
        "meta_inclination": 98.4582,
        "meta_ra_of_asc_node": 308.6672,
        "meta_arg_of_pericenter": 54.2034,
        "meta_mean_anomaly": 322.9436,
        "meta_ephemeris_type": 0,
        "meta_classification_type": "U",
        "meta_norad_cat_id": 31384,
        "meta_element_set_no": 999,
        "meta_rev_at_epoch": 92961,
        "meta_bstar": 0.0028698607,
        "meta_mean_motion_dot": 7.083e-05,
        "meta_mean_motion_ddot": 0,
        "tle_line1": "1 31384U 99025BSQ 25342.17605806  .00007083  00000+0  28699-2 0  9996",
        "tle_line2": "2 31384  98.4582 308.6672 0440619  54.2034 322.9436 13.86050931929613"
      },
      "geometry": {
        "type": "Point",
        "coordinates": [
          -56.587049748540764,
          36.71409750979228
        ]
      }
    },
    {
      "type": "Feature",
      "properties": {
        "norad_id": 31385,
        "name": "FENGYUN 1C DEB",
        "group": "fengyun-1c-debris",
        "lat": -37.75715205713835,
        "lon": -113.6292186584667,
        "alt_km": 836.8650512439544,
        "timestamp": "2025-12-09T09:46:47.928150+00:00",
        "meta_object_name": "FENGYUN 1C DEB",
        "meta_object_id": "1999-025BSR",
        "meta_epoch": "2025-12-08T00:18:35.726400",
        "meta_mean_motion": 14.43988949,
        "meta_eccentricity": 0.01348196,
        "meta_inclination": 98.9544,
        "meta_ra_of_asc_node": 71.9176,
        "meta_arg_of_pericenter": 69.5562,
        "meta_mean_anomaly": 102.5231,
        "meta_ephemeris_type": 0,
        "meta_classification_type": "U",
        "meta_norad_cat_id": 31385,
        "meta_element_set_no": 999,
        "meta_rev_at_epoch": 98546,
        "meta_bstar": 0.0002381553,
        "meta_mean_motion_dot": 8.55e-06,
        "meta_mean_motion_ddot": 0,
        "tle_line1": "1 31385U 99025BSR 25342.01291350  .00000855  00000+0  23816-3 0  9992",
        "tle_line2": "2 31385  98.9544  71.9176 0134819  69.5562 102.5231 14.43988949985466"
      },
      "geometry": {
        "type": "Point",
        "coordinates": [
          -113.6292186584667,
          -37.75715205713835
        ]
      }
    },
    {
      "type": "Feature",
      "properties": {
        "norad_id": 31386,
        "name": "FENGYUN 1C DEB",
        "group": "fengyun-1c-debris",
        "lat": -63.21307379479768,
        "lon": 161.5273426073063,
        "alt_km": 853.5201867798278,
        "timestamp": "2025-12-09T09:46:47.928167+00:00",
        "meta_object_name": "FENGYUN 1C DEB",
        "meta_object_id": "1999-025BSS",
        "meta_epoch": "2025-12-07T23:40:04.097856",
        "meta_mean_motion": 13.85992319,
        "meta_eccentricity": 0.01975374,
        "meta_inclination": 98.4416,
        "meta_ra_of_asc_node": 357.3514,
        "meta_arg_of_pericenter": 297.4242,
        "meta_mean_anomaly": 60.6947,
        "meta_ephemeris_type": 0,
        "meta_classification_type": "U",
        "meta_norad_cat_id": 31386,
        "meta_element_set_no": 999,
        "meta_rev_at_epoch": 93796,
        "meta_bstar": 0.0027124284,
        "meta_mean_motion_dot": 3.597e-05,
        "meta_mean_motion_ddot": 0,
        "tle_line1": "1 31386U 99025BSS 25341.98615854  .00003597  00000+0  27124-2 0  9998",
        "tle_line2": "2 31386  98.4416 357.3514 0197537 297.4242  60.6947 13.85992319937961"
      },
      "geometry": {
        "type": "Point",
        "coordinates": [
          161.5273426073063,
          -63.21307379479768
        ]
      }
    },
    {
      "type": "Feature",
      "properties": {
        "norad_id": 31387,
        "name": "FENGYUN 1C DEB",
        "group": "fengyun-1c-debris",
        "lat": -78.23649454811994,
        "lon": -87.36439979120227,
        "alt_km": 870.906277075318,
        "timestamp": "2025-12-09T09:46:47.928178+00:00",
        "meta_object_name": "FENGYUN 1C DEB",
        "meta_object_id": "1999-025BST",
        "meta_epoch": "2025-12-06T22:43:27.576480",
        "meta_mean_motion": 14.13560438,
        "meta_eccentricity": 0.02414641,
        "meta_inclination": 99.1686,
        "meta_ra_of_asc_node": 219.257,
        "meta_arg_of_pericenter": 187.5601,
        "meta_mean_anomaly": 172.1904,
        "meta_ephemeris_type": 0,
        "meta_classification_type": "U",
        "meta_norad_cat_id": 31387,
        "meta_element_set_no": 999,
        "meta_rev_at_epoch": 96215,
        "meta_bstar": 0.00038701787,
        "meta_mean_motion_dot": 9.14e-06,
        "meta_mean_motion_ddot": 0,
        "tle_line1": "1 31387U 99025BST 25340.94684695  .00000914  00000+0  38702-3 0  9998",
        "tle_line2": "2 31387  99.1686 219.2570 0241464 187.5601 172.1904 14.13560438962150"
      },
      "geometry": {
        "type": "Point",
        "coordinates": [
          -87.36439979120227,
          -78.23649454811994
        ]
      }
    },
    {
      "type": "Feature",
      "properties": {
        "norad_id": 31388,
        "name": "FENGYUN 1C DEB",
        "group": "fengyun-1c-debris",
        "lat": -28.548460637869077,
        "lon": 146.61917863947536,
        "alt_km": 840.4022367362277,
        "timestamp": "2025-12-09T09:46:47.928191+00:00",
        "meta_object_name": "FENGYUN 1C DEB",
        "meta_object_id": "1999-025BSU",
        "meta_epoch": "2025-12-08T19:42:36.172800",
        "meta_mean_motion": 14.07424245,
        "meta_eccentricity": 0.00463421,
        "meta_inclination": 98.8046,
        "meta_ra_of_asc_node": 330.885,
        "meta_arg_of_pericenter": 212.1193,
        "meta_mean_anomaly": 268.0042,
        "meta_ephemeris_type": 0,
        "meta_classification_type": "U",
        "meta_norad_cat_id": 31388,
        "meta_element_set_no": 999,
        "meta_rev_at_epoch": 96386,
        "meta_bstar": 0.00016229166,
        "meta_mean_motion_dot": 2.33e-06,
        "meta_mean_motion_ddot": 0,
        "tle_line1": "1 31388U 99025BSU 25342.82125200  .00000233  00000+0  16229-3 0  9994",
        "tle_line2": "2 31388  98.8046 330.8850 0046342 212.1193 268.0042 14.07424245963862"
      },
      "geometry": {
        "type": "Point",
        "coordinates": [
          146.61917863947536,
          -28.548460637869077
        ]
      }
    },
    {
      "type": "Feature",
      "properties": {
        "norad_id": 31389,
        "name": "FENGYUN 1C DEB",
        "group": "fengyun-1c-debris",
        "lat": -34.91980476041964,
        "lon": -37.888406868082704,
        "alt_km": 677.0275718286885,
        "timestamp": "2025-12-09T09:46:47.928202+00:00",
        "meta_object_name": "FENGYUN 1C DEB",
        "meta_object_id": "1999-025BSV",
        "meta_epoch": "2025-12-08T23:32:04.422336",
        "meta_mean_motion": 14.60719091,
        "meta_eccentricity": 0.0029431,
        "meta_inclination": 99.0428,
        "meta_ra_of_asc_node": 148.0292,
        "meta_arg_of_pericenter": 200.2512,
        "meta_mean_anomaly": 291.4044,
        "meta_ephemeris_type": 0,
        "meta_classification_type": "U",
        "meta_norad_cat_id": 31389,
        "meta_element_set_no": 999,
        "meta_rev_at_epoch": 96442,
        "meta_bstar": 0.0062483408,
        "meta_mean_motion_dot": 0.00030725,
        "meta_mean_motion_ddot": 0,
        "tle_line1": "1 31389U 99025BSV 25342.98060674  .00030725  00000+0  62483-2 0  9996",
        "tle_line2": "2 31389  99.0428 148.0292 0029431 200.2512 291.4044 14.60719091964422"
      },
      "geometry": {
        "type": "Point",
        "coordinates": [
          -37.888406868082704,
          -34.91980476041964
        ]
      }
    },
    {
      "type": "Feature",
      "properties": {
        "norad_id": 31410,
        "name": "FENGYUN 1C DEB",
        "group": "fengyun-1c-debris",
        "lat": 36.08620270318076,
        "lon": -28.6638598918442,
        "alt_km": 810.5943713225397,
        "timestamp": "2025-12-09T09:46:47.928215+00:00",
        "meta_object_name": "FENGYUN 1C DEB",
        "meta_object_id": "1999-025BSW",
        "meta_epoch": "2025-12-07T17:17:24.959328",
        "meta_mean_motion": 14.44721575,
        "meta_eccentricity": 0.01105819,
        "meta_inclination": 98.8363,
        "meta_ra_of_asc_node": 143.0724,
        "meta_arg_of_pericenter": 301.77,
        "meta_mean_anomaly": 72.6567,
        "meta_ephemeris_type": 0,
        "meta_classification_type": "U",
        "meta_norad_cat_id": 31410,
        "meta_element_set_no": 999,
        "meta_rev_at_epoch": 97679,
        "meta_bstar": 0.001369376,
        "meta_mean_motion_dot": 5.07e-05,
        "meta_mean_motion_ddot": 0,
        "tle_line1": "1 31410U 99025BSW 25341.72042777  .00005070  00000+0  13694-2 0  9991",
        "tle_line2": "2 31410  98.8363 143.0724 0110581 301.7700  72.6567 14.44721575976794"
      },
      "geometry": {
        "type": "Point",
        "coordinates": [
          -28.6638598918442,
          36.08620270318076
        ]
      }
    }
  ]
}